OBJECT_NAME,OBJECT_ID,EPOCH,MEAN_MOTION,ECCENTRICITY,INCLINATION,RA_OF_ASC_NODE,ARG_OF_PERICENTER,MEAN_ANOMALY,EPHEMERIS_TYPE,CLASSIFICATION_TYPE,NORAD_CAT_ID,ELEMENT_SET_NO,REV_AT_EPOCH,BSTAR,MEAN_MOTION_DOT,MEAN_MOTION_DDOT
TIANMU-1 20,2023-208B,2026-07-04T14:57:46.327968,15.33039454,.00056592,97.4463,302.6699,256.7246,103.3365,0,U,58661,999,14009,.46079066E-3,.14646E-3,0
TIANMU-1 21,2023-208C,2026-07-04T14:02:49.917408,15.35401440,.00058526,97.4523,305.3880,247.1199,112.9427,0,U,58662,999,14023,.49580513E-3,.16995E-3,0
TIANMU-1 22,2023-208D,2026-07-04T14:05:11.681664,15.31310669,.0002193,97.4516,301.9008,276.3999,83.6993,0,U,58663,999,13999,.37863693E-3,.11378E-3,0
TIANMU-1 15,2024-004A,2026-07-04T14:18:21.655008,15.26831952,.00056637,97.4671,11.7865,275.5251,84.5341,0,U,58700,999,13843,.36525934E-3,.9563E-4,0
TIANMU-1 16,2024-004B,2026-07-03T17:37:26.346144,15.26923320,.00044082,97.4615,10.1476,300.8147,59.2658,0,U,58701,999,13830,.34897E-3,.9157E-4,0
TIANMU-1 17,2024-004C,2026-07-03T14:07:46.558848,15.26920424,.00040628,97.4642,10.4932,309.7724,50.3157,0,U,58702,999,13827,.32294394E-3,.8466E-4,0
TIANMU-1 18,2024-004D,2026-07-04T14:42:23.593248,15.26850433,.00033602,97.4663,11.7785,278.2422,81.8436,0,U,58703,999,13843,.34916127E-3,.9141E-4,0
INSAT-3DS,2024-033A,2026-07-04T14:16:44.720256,1.00273286,.00012371,0.0757,96.3178,12.9123,109.6149,0,U,58990,999,4724,0,-.144E-5,0
METEOR-M2 4,2024-039A,2026-07-04T15:04:40.532160,14.22431382,.00080923,98.7019,144.7077,115.0884,245.1134,0,U,59051,999,12174,.34366336E-4,.33E-6,0
GOES 19,2024-119A,2026-07-04T11:49:10.989120,1.00270348,.00005715,0.0019,231.4182,297.0200,216.1632,0,U,60133,999,713,0,-.236E-5,0
MTG-S1,2025-143A,2026-07-04T13:53:05.453376,1.00272400,.00030764,0.5905,342.5684,262.4739,245.3637,0,U,64723,999,359,0,.4E-7,0
METOP-SGA1,2025-172A,2026-07-04T09:43:25.627872,14.19817913,.00076753,98.6635,244.7686,4.4509,355.6734,0,U,65159,999,4623,.50116202E-4,.63E-6,0
FENGYUN 3H,2025-219A,2026-07-04T14:05:27.857472,14.19923623,.00013772,98.6770,126.0181,65.8289,294.3032,0,U,65815,999,3985,.66943895E-4,.99E-6,0
