TIANMU-1 20             
1 58661U 23208B   26185.62345287  .00014646  00000+0  46079-3 0  9999
2 58661  97.4463 302.6699 0005659 256.7246 103.3365 15.33039454140095
TIANMU-1 21             
1 58662U 23208C   26185.58529997  .00016995  00000+0  49581-3 0  9997
2 58662  97.4523 305.3880 0005852 247.1199 112.9427 15.35401440140232
TIANMU-1 22             
1 58663U 23208D   26185.58694076  .00011378  00000+0  37864-3 0  9990
2 58663  97.4516 301.9008 0002193 276.3999  83.6993 15.31310669139997
TIANMU-1 15             
1 58700U 24004A   26185.59608397  .00009563  00000+0  36526-3 0  9996
2 58700  97.4671  11.7865 0005663 275.5251  84.5341 15.26831952138437
TIANMU-1 16             
1 58701U 24004B   26184.73433271  .00009157  00000+0  34897-3 0  9997
2 58701  97.4615  10.1476 0004408 300.8147  59.2658 15.26923320138306
TIANMU-1 17             
1 58702U 24004C   26184.58873332  .00008466  00000+0  32294-3 0  9998
2 58702  97.4642  10.4932 0004062 309.7724  50.3157 15.26920424138276
TIANMU-1 18             
1 58703U 24004D   26185.61277307  .00009141  00000+0  34916-3 0  9998
2 58703  97.4663  11.7785 0003360 278.2422  81.8436 15.26850433138434
INSAT-3DS               
1 58990U 24033A   26185.59496204 -.00000144  00000+0  00000+0 0  9992
2 58990   0.0757  96.3178 0001237  12.9123 109.6149  1.00273286 47243
METEOR-M2 4             
1 59051U 24039A   26185.62824690  .00000033  00000+0  34366-4 0  9998
2 59051  98.7019 144.7077 0008092 115.0884 245.1134 14.22431382121747
GOES 19                 
1 60133U 24119A   26185.49248830 -.00000236  00000+0  00000+0 0  9990
2 60133   0.0019 231.4182 0000571 297.0200 216.1632  1.00270348  7136
MTG-S1                  
1 64723U 25143A   26185.57853534  .00000004  00000+0  00000+0 0  9991
2 64723   0.5905 342.5684 0003076 262.4739 245.3637  1.00272400  3597
METOP-SGA1              
1 65159U 25172A   26185.40515773  .00000063  00000+0  50116-4 0  9992
2 65159  98.6635 244.7686 0007675   4.4509 355.6734 14.19817913 46231
FENGYUN 3H              
1 65815U 25219A   26185.58712798  .00000099  00000+0  66944-4 0  9993
2 65815  98.6770 126.0181 0001377  65.8289 294.3032 14.19923623 39857
